2023-104A               
1 57424U 23104A   26065.78279804  .00015492  00000+0  48200-3 0  9993
2 57424  97.2792 135.5625 0009333 122.1915 238.0234 15.33350758146346
STARLINK-35809          
1 66373U 25254AB  26068.72068727  .00027879  00000+0  94978-3 0  9996
2 66373  53.1589 229.9053 0001179  68.3210 291.7917 15.30203479 19017
